NORAD_CAT_ID,OBJECT_NAME,OBJECT_TYPE,EPOCH,MEAN_MOTION,ECCENTRICITY,INCLINATION,RA_OF_ASC_NODE,ARG_OF_PERICENTER,MEAN_ANOMALY,BSTAR,MEAN_MOTION_DOT,MEAN_MOTION_DDOT,TLE_LINE0,TLE_LINE1,TLE_LINE2,SEMIMAJOR_AXIS,PERIOD,APOGEE,PERIGEE,DECAYED
54011.0,STARLINK-5124,PAYLOAD,2024-04-11 15:56:48,15.08842611,0.0001283,53.2167,93.3378,90.3229,269.791,6.9622e-05,8.2e-06,0.0,0 STARLINK-5124,1 54011U 22125AZ  24102.66444565  .00000820  00000-0  69622-4 0  9991,2 54011  53.2167  93.3378 0001283  90.3229 269.7910 15.08842611 84427,6917.872,95.437,540.625,538.85,0.0
54011.0,STARLINK-5124,PAYLOAD,2024-04-12 04:39:53,15.08843274,0.0001441,53.2188,90.9602,91.8744,268.2414,-9.9365e-05,-1.869e-05,0.0,0 STARLINK-5124,1 54011U 22125AZ  24103.19437250 -.00001869  00000-0 -99365-4 0  9996,2 54011  53.2188  90.9602 0001441  91.8744 268.2414 15.08843274 84505,6917.87,95.437,540.732,538.739,0.0
54011.0,STARLINK-5124,PAYLOAD,2024-04-12 06:15:16,15.08853671,0.0001413,53.2189,90.6628,92.777,267.3384,-0.00022822,-3.92e-05,0.0,0 STARLINK-5124,1 54011U 22125AZ  24103.26060953 -.00003920  00000-0 -22822-3 0  9999,2 54011  53.2189  90.6628 0001413  92.7770 267.3384 15.08853671 84462,6917.839,95.437,540.681,538.726,0.0
54011.0,STARLINK-5124,PAYLOAD,2024-04-13 04:30:41,15.0883267,0.0001523,53.2186,86.5033,103.6183,256.4978,2.5026e-05,1.1e-06,0.0,0 STARLINK-5124,1 54011U 22125AZ  24104.18797923  .00000110  00000-0  25026-4 0  9991,2 54011  53.2186  86.5033 0001523 103.6183 256.4978 15.08832670 84650,6917.903,95.438,540.821,538.714,0.0
54011.0,STARLINK-5124,PAYLOAD,2024-04-14 04:21:28,15.08839766,0.0001421,53.2178,82.0372,94.3771,265.7384,8.6474e-05,1.089e-05,0.0,0 STARLINK-5124,1 54011U 22125AZ  24105.18157581  .00001089  00000-0  86474-4 0  9992,2 54011  53.2178  82.0372 0001421  94.3771 265.7384 15.08839766 84808,6917.881,95.438,540.729,538.763,0.0
54011.0,STARLINK-5124,PAYLOAD,2024-04-14 05:56:51,15.08841473,0.0001419,53.2179,81.7398,88.2135,271.902,0.00010053,1.312e-05,0.0,0 STARLINK-5124,1 54011U 22125AZ  24105.24781478  .00001312  00000-0  10053-3 0  9995,2 54011  53.2179  81.7398 0001419  88.2135 271.9020 15.08841473 84765,6917.876,95.437,540.723,538.759,0.0
54011.0,STARLINK-5124,PAYLOAD,2024-04-15 05:47:38,15.08840044,0.0001449,53.2184,77.2825,82.0033,278.1124,9.6233e-05,1.244e-05,0.0,0 STARLINK-5124,1 54011U 22125AZ  24106.24141811  .00001244  00000-0  96233-4 0  9996,2 54011  53.2184  77.2825 0001449  82.0033 278.1124 15.08840044 84967,6917.88,95.438,540.748,538.743,0.0
54011.0,STARLINK-5124,PAYLOAD,2024-04-15 21:41:29,15.08846403,0.0001559,53.2188,74.3069,76.4157,283.7008,6.1475e-05,6.91e-06,0.0,0 STARLINK-5124,1 54011U 22125AZ  24106.90381548  .00000691  00000-0  61475-4 0  9997,2 54011  53.2188  74.3069 0001559  76.4157 283.7008 15.08846403 85010,6917.861,95.437,540.804,538.647,0.0
54011.0,STARLINK-5124,PAYLOAD,2024-04-16 07:13:48,15.0884867,0.0001658,53.2188,72.5212,91.9009,268.2173,6.7387e-05,7.85e-06,0.0,0 STARLINK-5124,1 54011U 22125AZ  24107.30125190  .00000785  00000-0  67387-4 0  9993,2 54011  53.2188  72.5212 0001658  91.9009 268.2173 15.08848670 85129,6917.854,95.437,540.866,538.572,0.0
54011.0,STARLINK-5124,PAYLOAD,2024-04-16 15:10:42,15.08856987,0.0001647,53.2198,71.0346,100.024,260.0938,0.00016433,2.329e-05,0.0,0 STARLINK-5124,1 54011U 22125AZ  24107.63244185  .00002329  00000-0  16433-3 0  9996,2 54011  53.2198  71.0346 0001647 100.0240 260.0938 15.08856987 85173,6917.828,95.436,540.833,538.554,0.0
54011.0,STARLINK-5124,PAYLOAD,2024-04-17 03:53:48,15.08844673,0.0001571,53.2186,68.6567,97.8409,262.2761,8.5293e-05,1.07e-05,0.0,0 STARLINK-5124,1 54011U 22125AZ  24108.16237083  .00001070  00000-0  85293-4 0  9997,2 54011  53.2186  68.6567 0001571  97.8409 262.2761 15.08844673 85259,6917.866,95.437,540.818,538.644,0.0
54011.0,STARLINK-5124,PAYLOAD,2024-04-18 03:44:36,15.08833668,0.0001519,53.2189,64.1956,84.1521,275.9644,-9.2504e-05,-1.76e-05,0.0,0 STARLINK-5124,1 54011U 22125AZ  24109.15597973 -.00001760  00000-0 -92504-4 0  9995,2 54011  53.2189  64.1956 0001519  84.1521 275.9644 15.08833668 85401,6917.9,95.438,540.816,538.714,0.0
54011.0,STARLINK-5124,PAYLOAD,2024-04-18 06:55:22,15.08836381,0.0001375,53.218,63.5987,83.1235,276.9914,-4.5071e-05,-1.005e-05,0.0,0 STARLINK-5124,1 54011U 22125AZ  24109.28845838 -.00001005  00000-0 -45071-4 0  9994,2 54011  53.2180  63.5987 0001375  83.1235 276.9914 15.08836381 85372,6917.891,95.438,540.708,538.805,0.0
54011.0,STARLINK-5124,PAYLOAD,2024-04-19 03:35:24,15.08842367,0.0001515,53.2179,59.7407,121.0101,239.104,0.00023306,3.423e-05,0.0,0 STARLINK-5124,1 54011U 22125AZ  24110.14958929  .00003423  00000-0  23306-3 0  9997,2 54011  53.2179  59.7407 0001515 121.0101 239.1040 15.08842367 85501,6917.873,95.437,540.786,538.69,0.0
54011.0,STARLINK-5124,PAYLOAD,2024-04-19 21:04:39,15.08848682,0.0001171,53.217,56.4631,93.7428,266.3698,0.0005336,8.217e-05,0.0,0 STARLINK-5124,1 54011U 22125AZ  24110.87823060  .00008217  00000-0  53360-3 0  9993,2 54011  53.2170  56.4631 0001171  93.7428 266.3698 15.08848682 85664,6917.854,95.437,540.529,538.909,0.0
54011.0,STARLINK-5124,PAYLOAD,2024-04-20 03:26:11,15.08866894,0.0001415,53.2178,55.2744,98.4441,261.6711,0.00086045,0.00013443,0.0,0 STARLINK-5124,1 54011U 22125AZ  24111.14318576  .00013443  00000-0  86045-3 0  9998,2 54011  53.2178  55.2744 0001415  98.4441 261.6711 15.08866894 85706,6917.798,95.436,540.642,538.684,0.0
54011.0,STARLINK-5124,PAYLOAD,2024-04-20 19:20:01,15.08873006,0.0001735,53.2186,52.3059,87.3766,272.7425,0.00046639,7.149e-05,0.0,0 STARLINK-5124,1 54011U 22125AZ  24111.80557314  .00007149  00000-0  46639-3 0  9997,2 54011  53.2186  52.3059 0001735  87.3766 272.7425 15.08873006 85803,6917.78,95.435,540.845,538.444,0.0
54011.0,STARLINK-5124,PAYLOAD,2024-04-21 03:16:57,15.08838068,0.0001533,53.218,50.8136,85.6172,274.4995,-0.00074117,-0.00012064,0.0,0 STARLINK-5124,1 54011U 22125AZ  24112.13677517 -.00012064  00000-0 -74117-3 0  9998,2 54011  53.2180  50.8136 0001533  85.6172 274.4995 15.08838068 85859,6917.886,95.438,540.812,538.691,0.0
54011.0,STARLINK-5124,PAYLOAD,2024-04-21 04:52:20,15.08833277,0.0001544,53.2179,50.516,90.3114,269.8055,-0.00072989,-0.00011883,0.0,0 STARLINK-5124,1 54011U 22125AZ  24112.20301396 -.00011883  00000-0 -72989-3 0  9998,2 54011  53.2179  50.5160 0001544  90.3114 269.8055 15.08833277 85810,6917.901,95.438,540.834,538.698,0.0
54011.0,STARLINK-5124,PAYLOAD,2024-04-22 04:43:08,15.08840695,0.0002007,53.2185,46.0552,88.8122,271.31,0.00040818,6.214e-05,0.0,0 STARLINK-5124,1 54011U 22125AZ  24113.19662856  .00006214  00000-0  40818-3 0  9994,2 54011  53.2185  46.0552 0002007  88.8122 271.3100 15.08840695 86012,6917.878,95.438,541.132,538.355,0.0
54011.0,STARLINK-5124,PAYLOAD,2024-04-23 02:58:33,15.08830339,0.0001813,53.2186,41.8939,84.175,275.9449,0.00023055,3.382e-05,0.0,0 STARLINK-5124,1 54011U 22125AZ  24114.12399888  .00003382  00000-0  23055-3 0  9997,2 54011  53.2186  41.8939 0001813  84.1750 275.9449 15.08830339 86150,6917.91,95.438,541.029,538.521,0.0
54011.0,STARLINK-5124,PAYLOAD,2024-04-23 04:33:56,15.08830323,0.0001814,53.2186,41.5964,84.0866,276.0332,0.00021146,3.078e-05,0.0,0 STARLINK-5124,1 54011U 22125AZ  24114.19023920  .00003078  00000-0  21146-3 0  9996,2 54011  53.2186  41.5964 0001814  84.0866 276.0332 15.08830323 86115,6917.91,95.438,541.03,538.52,0.0
54011.0,STARLINK-5124,PAYLOAD,2024-04-24 01:13:57,15.08844662,0.0001703,53.2209,37.7225,111.332,248.7854,-0.00026144,-4.447e-05,0.0,0 STARLINK-5124,1 54011U 22125AZ  24115.05135507 -.00004447  00000-0 -26144-3 0  9993,2 54011  53.2209  37.7225 0001703 111.3320 248.7854 15.08844662 86244,6917.866,95.437,540.909,538.553,0.0
54011.0,STARLINK-5124,PAYLOAD,2024-04-24 21:53:57,15.08848093,0.0001591,53.2196,33.8697,126.0311,234.0829,0.00031086,4.664e-05,0.0,0 STARLINK-5124,1 54011U 22125AZ  24115.91247459  .00004664  00000-0  31086-3 0  9998,2 54011  53.2196  33.8697 0001591 126.0311 234.0829 15.08848093 86373,6917.856,95.437,540.821,538.62,0.0
54011.0,STARLINK-5124,PAYLOAD,2024-04-25 01:04:43,15.08863505,0.0001636,53.2191,33.2736,127.1644,232.9498,0.00050833,7.816e-05,0.0,0 STARLINK-5124,1 54011U 22125AZ  24116.04494718  .00007816  00000-0  50833-3 0  9998,2 54011  53.2191  33.2736 0001636 127.1644 232.9498 15.08863505 86449,6917.809,95.436,540.805,538.542,0.0
54011.0,STARLINK-5124,PAYLOAD,2024-04-25 21:44:44,15.08853712,0.0001168,53.2185,29.4016,105.7262,254.3859,0.00017254,2.46e-05,0.0,0 STARLINK-5124,1 54011U 22125AZ  24116.90606662  .00002460  00000-0  17254-3 0  9996,2 54011  53.2185  29.4016 0001168 105.7262 254.3859 15.08853712 86525,6917.838,95.437,540.511,538.895,0.0
54011.0,STARLINK-5124,PAYLOAD,2024-04-25 23:20:07,15.08851955,0.000131,53.2175,29.1046,130.9191,229.1914,0.00013925,1.93e-05,0.0,0 STARLINK-5124,1 54011U 22125AZ  24116.97230577  .00001930  00000-0  13925-3 0  9993,2 54011  53.2175  29.1046 0001310 130.9191 229.1914 15.08851955 86589,6917.844,95.437,540.615,538.803,0.0
54011.0,STARLINK-5124,PAYLOAD,2024-04-26 21:35:31,15.08850227,9.96e-05,53.2174,24.9458,81.119,278.9914,-0.00014094,-2.531e-05,0.0,0 STARLINK-5124,1 54011U 22125AZ  24117.89967189 -.00002531  00000-0 -14094-3 0  9999,2 54011  53.2174  24.9458 0000996  81.1190 278.9914 15.08850227 86676,6917.849,95.437,540.403,539.025,0.0
54011.0,STARLINK-5124,PAYLOAD,2024-04-27 00:46:17,15.08850035,0.0001038,53.2171,24.3523,84.5639,275.5472,-0.0001514,-2.697e-05,0.0,0 STARLINK-5124,1 54011U 22125AZ  24118.03215126 -.00002697  00000-0 -15140-3 0  9999,2 54011  53.2171  24.3523 0001038  84.5639 275.5472 15.08850035 86740,6917.85,95.437,540.433,538.997,0.0
54011.0,STARLINK-5124,PAYLOAD,2024-04-27 10:18:35,15.0885628,0.0001097,53.2188,22.5727,119.9096,240.2006,-8.7339e-05,-1.678e-05,0.0,0 STARLINK-5124,1 54011U 22125AZ  24118.42958134 -.00001678  00000-0 -87339-4 0  9993,2 54011  53.2188  22.5727 0001097 119.9096 240.2006 15.08856280 86806,6917.831,95.437,540.455,538.937,0.0
